#aV2019  3 25  0  0  0.00000000     288 DD+AD WGS84 FIT  NGA
## 2046  86400.00000000   300.00000000 58567 0.0000000000000
+   31     1  2  3  5  6  7  8  9 10 11 12 13 14 15 16 17 18
+         19 20 21 22 23 24 25 26 27 28 29 30 31 32  0  0  0
+          0  0  0  0  0  0  0  0  0  0  0  0  0  0  0  0  0
+          0  0  0  0  0  0  0  0  0  0  0  0  0  0  0  0  0
+          0  0  0  0  0  0  0  0  0  0  0  0  0  0  0  0  0
++         2  2  2  2  2  2  2  2  2  2  2  2  2  2  2  2  2
++         2  2  2  2  2  2  2  2  2  2  2  2  2  2  0  0  0
++         0  0  0  0  0  0  0  0  0  0  0  0  0  0  0  0  0
++         0  0  0  0  0  0  0  0  0  0  0  0  0  0  0  0  0
++         0  0  0  0  0  0  0  0  0  0  0  0  0  0  0  0  0
%c cc cc ccc ccc cccc cccc cccc cccc ccccc ccccc ccccc ccccc
%c cc cc ccc ccc cccc cccc cccc cccc ccccc ccccc ccccc ccccc
%f  0.0000000  0.000000000  0.00000000000  0.000000000000000
%f  0.0000000  0.000000000  0.00000000000  0.000000000000000
%i    0    0    0    0      0      0      0      0         0
%i    0    0    0    0      0      0      0      0         0
/*      NGA, ST. LOUIS,MO.                                  
/*   EPHEMERIS COMPUTED FROM 2 DAYS OF DATA                 
/*   EPOCHA v3 SMOOTHER                                     
/*   G1762 IERS2010 SATAF SATAPC                            
*  2019  3 25 19 50  0.00000000
P  1  11914.056137 -21516.452629  -9773.001713   -188.061286                    
V  1  10264.879626  -7073.273152  28901.407326     -0.077547                    
P  2 -20568.046089  12372.336037 -10578.015173   -172.628792                    
V  2   7178.386047 -12832.915245 -27579.111341     -0.095798                    
P  3   5817.114687 -14141.528603 -21745.595857    187.272038                    
V  3  26607.032496   7079.705475   2593.572503      0.007931                    
P  5 -23291.517029   3705.651050  12295.564690      1.182809                    
V  5 -14793.561572  -5949.531884 -25778.599666     -0.000162                    
P  6 -18391.458818    305.687835 -19122.730958    246.689917                    
V  6  16109.579808 -18279.672602 -15714.944934     -0.090389                    
P  7   -996.552546 -18267.343515  19335.711878      7.955180                    
V  7  18263.010497 -15952.360085 -14775.958072     -0.073854                    
P  8   8200.445092 -17086.440700  18564.020770   -137.490447                    
V  8   8050.656305  22162.289484  17074.859825     -0.013931                    
P  9  -8059.541124 -25289.068260    772.950784    439.576732                    
V  9   2659.177378  -1866.679748 -31566.407830     -0.060395                    
P 10  22862.533420  11349.826934   7759.313939     88.906250                    
V 10 -10016.001425    -36.663076  29600.944105     -0.089665                    
P 11   8705.652994 -25224.120177     14.643675   -638.655823                    
V 11   3802.296056   1977.195985  30412.873652      0.068094                    
P 12  -7693.562421  12943.946093 -22074.505169    257.028946                    
V 12 -26005.581978  -8869.134377   4076.655950     -0.032936                    
P 13 -13268.660011   9002.518240  21052.484711    -70.355465                    
V 13  -4775.544749 -26565.509528   8343.448146      0.014415                    
P 14  15592.925286   8252.103436 -19599.226384    -87.001123                    
V 14   3817.093170  25252.109748  13277.878324      0.014065                    
P 15  -6122.259694  19208.892894  16833.985483   -321.754497                    
V 15 -10368.688104 -19725.291271  18844.907299      0.018985                    
P 16  22601.847681  -1964.135177  13983.006065    -27.931278                    
V 16  16404.073135   7180.336538 -24749.869551     -0.027154                    
P 17 -13714.358272 -17295.085519 -14432.806364     28.923959                    
V 17  -2566.593214 -18853.175601  24262.893068      0.058220                    
P 18  17239.285152 -20103.932064   -600.035177     38.162279                    
V 18   2509.010790   1967.414475  31665.233609      0.034577                    
P 19 -15245.369801  -8583.259880 -20250.406110   -338.209254                    
V 19  -3489.308524 -24801.584439  13426.110724      0.043287                    
P 20  16171.795680  13976.585694  15749.138461    523.420344                    
V 20 -20376.684285   -183.051042  20800.756255      0.003223                    
P 21   5941.857607  16203.810422  21029.870147   -225.444751                    
V 21 -16949.285436  18275.274063  -9539.149483      0.074607                    
P 22  14077.900218 -11851.471232 -18891.555860   -671.293916                    
V 22  23913.147467   6200.635545  13817.950224     -0.073662                    
P 23     13.266309 -24375.856993  -9712.641262   -192.702159                    
V 23   6982.363053  11431.838922 -28171.041814      0.013968                    
P 24 -13797.924321  21820.182800  -5606.705149    -63.881205                    
V 24  -7374.667249   2846.583620  30375.480056     -0.005880                    
P 25   6004.341671  16075.448648 -20549.140027   -737.676698                    
V 25 -24899.379800  -5676.452853 -11581.678764     -0.047811                    
P 26  26170.641339   3108.593860   3978.882657    158.764924                    
V 26   4278.014507   3954.472324 -30910.965855      0.100289                    
P 27  13642.334291  -5883.466694  21903.693864    -93.865509                    
V 27   7943.143311  26862.855028   2548.592768     -0.082224                    
P 28 -20830.394441 -13922.899432   9275.069486    766.790963                    
V 28  10918.998360   1877.046405  29359.832335      0.003622                    
P 29   2739.147453  26094.536103  -4161.270636    240.975787                    
V 29  -3033.524579  -4707.315106 -31720.528644     -0.088865                    
P 30 -11525.042109 -10623.334386  21461.928662    -74.802122                    
V 30  19861.343201 -18708.647647   1225.912654     -0.067240                    
P 31  19511.774740  -1176.753592 -18178.269734     49.638445                    
V 31 -15564.707814  16884.337341 -17360.650801     -0.026907                    
P 32  15907.245794  13685.233401 -16302.774610   -163.695160                    
V 32   3955.834328  20460.593974  20862.314071      0.182494                    
EOF
